{
  "type": "FeatureCollection",
  "features": [
    {
      "type": "Feature",
      "properties": {
        "norad_id": 25590,
        "name": "COSMOS 2361",
        "group": "musson",
        "lat": -45.7526447775126,
        "lon": 165.11490716641103,
        "alt_km": 973.2736947853373,
        "timestamp": "2025-12-21T05:44:51.855597+00:00",
        "meta_object_name": "COSMOS 2361",
        "meta_object_id": "1998-076A",
        "meta_epoch": "2025-12-20T21:44:19.340160",
        "meta_mean_motion": 13.73218469,
        "meta_eccentricity": 0.00301775,
        "meta_inclination": 82.9341,
        "meta_ra_of_asc_node": 338.0463,
        "meta_arg_of_pericenter": 241.9348,
        "meta_mean_anomaly": 135.4786,
        "meta_ephemeris_type": 0,
        "meta_classification_type": "U",
        "meta_norad_cat_id": 25590,
        "meta_element_set_no": 999,
        "meta_rev_at_epoch": 35223,
        "meta_bstar": 4.2156659e-05,
        "meta_mean_motion_dot": 5.4e-07,
        "meta_mean_motion_ddot": 0,
        "tle_line1": "1 25590U 98076A   25354.90577940  .00000054  00000+0  42157-4 0  9992",
        "tle_line2": "2 25590  82.9341 338.0463 0030177 241.9348 135.4786 13.73218469352239"
      },
      "geometry": {
        "type": "Point",
        "coordinates": [
          165.11490716641103,
          -45.7526447775126
        ]
      }
    },
    {
      "type": "Feature",
      "properties": {
        "norad_id": 26818,
        "name": "COSMOS 2378",
        "group": "musson",
        "lat": -32.52476621280669,
        "lon": -11.118686590593477,
        "alt_km": 1010.9150092087411,
        "timestamp": "2025-12-21T05:44:51.855619+00:00",
        "meta_object_name": "COSMOS 2378",
        "meta_object_id": "2001-023A",
        "meta_epoch": "2025-12-20T13:00:00.679392",
        "meta_mean_motion": 13.74142617,
        "meta_eccentricity": 0.0032887,
        "meta_inclination": 82.927,
        "meta_ra_of_asc_node": 353.9394,
        "meta_arg_of_pericenter": 182.9533,
        "meta_mean_anomaly": 294.0488,
        "meta_ephemeris_type": 0,
        "meta_classification_type": "U",
        "meta_norad_cat_id": 26818,
        "meta_element_set_no": 999,
        "meta_rev_at_epoch": 23030,
        "meta_bstar": 2.7994e-05,
        "meta_mean_motion_dot": 4.2e-07,
        "meta_mean_motion_ddot": 0,
        "tle_line1": "1 26818U 01023A   25354.54167453  .00000042  00000+0  27994-4 0  9995",
        "tle_line2": "2 26818  82.9270 353.9394 0032887 182.9533 294.0488 13.74142617230309"
      },
      "geometry": {
        "type": "Point",
        "coordinates": [
          -11.118686590593477,
          -32.52476621280669
        ]
      }
    },
    {
      "type": "Feature",
      "properties": {
        "norad_id": 27436,
        "name": "COSMOS 2389",
        "group": "musson",
        "lat": -24.96489328795949,
        "lon": 123.99490474018022,
        "alt_km": 1020.6352215925972,
        "timestamp": "2025-12-21T05:44:51.855633+00:00",
        "meta_object_name": "COSMOS 2389",
        "meta_object_id": "2002-026A",
        "meta_epoch": "2025-12-20T22:03:06.837696",
        "meta_mean_motion": 13.75155426,
        "meta_eccentricity": 0.00473102,
        "meta_inclination": 82.9509,
        "meta_ra_of_asc_node": 300.9299,
        "meta_arg_of_pericenter": 38.4645,
        "meta_mean_anomaly": 19.9262,
        "meta_ephemeris_type": 0,
        "meta_classification_type": "U",
        "meta_norad_cat_id": 27436,
        "meta_element_set_no": 999,
        "meta_rev_at_epoch": 18261,
        "meta_bstar": 2.8802621e-05,
        "meta_mean_motion_dot": 4.3e-07,
        "meta_mean_motion_ddot": 0,
        "tle_line1": "1 27436U 02026A   25354.91882914  .00000043  00000+0  28803-4 0  9994",
        "tle_line2": "2 27436  82.9509 300.9299 0047310  38.4645  19.9262 13.75155426182610"
      },
      "geometry": {
        "type": "Point",
        "coordinates": [
          123.99490474018022,
          -24.96489328795949
        ]
      }
    },
    {
      "type": "Feature",
      "properties": {
        "norad_id": 27818,
        "name": "COSMOS 2398",
        "group": "musson",
        "lat": 71.50655320809156,
        "lon": -71.84557887853407,
        "alt_km": 960.9687758113087,
        "timestamp": "2025-12-21T05:44:51.855645+00:00",
        "meta_object_name": "COSMOS 2398",
        "meta_object_id": "2003-023A",
        "meta_epoch": "2025-12-20T20:58:25.260672",
        "meta_mean_motion": 13.72386495,
        "meta_eccentricity": 0.00327219,
        "meta_inclination": 82.9484,
        "meta_ra_of_asc_node": 266.7043,
        "meta_arg_of_pericenter": 90.1193,
        "meta_mean_anomaly": 337.6843,
        "meta_ephemeris_type": 0,
        "meta_classification_type": "U",
        "meta_norad_cat_id": 27818,
        "meta_element_set_no": 999,
        "meta_rev_at_epoch": 12928,
        "meta_bstar": 5.0232635e-05,
        "meta_mean_motion_dot": 6.1e-07,
        "meta_mean_motion_ddot": 0,
        "tle_line1": "1 27818U 03023A   25354.87390348  .00000061  00000+0  50233-4 0  9998",
        "tle_line2": "2 27818  82.9484 266.7043 0032721  90.1193 337.6843 13.72386495129283"
      },
      "geometry": {
        "type": "Point",
        "coordinates": [
          -71.84557887853407,
          71.50655320809156
        ]
      }
    },
    {
      "type": "Feature",
      "properties": {
        "norad_id": 28380,
        "name": "COSMOS 2407",
        "group": "musson",
        "lat": 28.398653963193368,
        "lon": -149.56969921390387,
        "alt_km": 946.2981899531915,
        "timestamp": "2025-12-21T05:44:51.855656+00:00",
        "meta_object_name": "COSMOS 2407",
        "meta_object_id": "2004-028A",
        "meta_epoch": "2025-12-20T20:56:10.980384",
        "meta_mean_motion": 13.76314595,
        "meta_eccentricity": 0.00399571,
        "meta_inclination": 82.9598,
        "meta_ra_of_asc_node": 206.8713,
        "meta_arg_of_pericenter": 32.6674,
        "meta_mean_anomaly": 338.0348,
        "meta_ephemeris_type": 0,
        "meta_classification_type": "U",
        "meta_norad_cat_id": 28380,
        "meta_element_set_no": 999,
        "meta_rev_at_epoch": 7535,
        "meta_bstar": 5.6590013e-05,
        "meta_mean_motion_dot": 7.1e-07,
        "meta_mean_motion_ddot": 0,
        "tle_line1": "1 28380U 04028A   25354.87234931  .00000071  00000+0  56590-4 0  9997",
        "tle_line2": "2 28380  82.9598 206.8713 0039957  32.6674 338.0348 13.76314595 75355"
      },
      "geometry": {
        "type": "Point",
        "coordinates": [
          -149.56969921390387,
          28.398653963193368
        ]
      }
    },
    {
      "type": "Feature",
      "properties": {
        "norad_id": 28521,
        "name": "COSMOS 2414",
        "group": "musson",
        "lat": -72.17751925180947,
        "lon": 155.59030704920428,
        "alt_km": 973.0801920374724,
        "timestamp": "2025-12-21T05:44:51.855667+00:00",
        "meta_object_name": "COSMOS 2414",
        "meta_object_id": "2005-002A",
        "meta_epoch": "2025-12-20T21:27:11.370240",
        "meta_mean_motion": 13.8790401,
        "meta_eccentricity": 0.00412857,
        "meta_inclination": 82.9488,
        "meta_ra_of_asc_node": 178.4938,
        "meta_arg_of_pericenter": 117.028,
        "meta_mean_anomaly": 243.5107,
        "meta_ephemeris_type": 0,
        "meta_classification_type": "U",
        "meta_norad_cat_id": 28521,
        "meta_element_set_no": 999,
        "meta_rev_at_epoch": 5908,
        "meta_bstar": 4.2049774e-05,
        "meta_mean_motion_dot": 6.6e-07,
        "meta_mean_motion_ddot": 0,
        "tle_line1": "1 28521U 05002A   25354.89388160  .00000066  00000+0  42050-4 0  9993",
        "tle_line2": "2 28521  82.9488 178.4938 0041285 117.0280 243.5107 13.87904010 59085"
      },
      "geometry": {
        "type": "Point",
        "coordinates": [
          155.59030704920428,
          -72.17751925180947
        ]
      }
    },
    {
      "type": "Feature",
      "properties": {
        "norad_id": 32052,
        "name": "COSMOS 2429",
        "group": "musson",
        "lat": 30.39409259975187,
        "lon": -18.813203015097315,
        "alt_km": 952.0670041399908,
        "timestamp": "2025-12-21T05:44:51.855679+00:00",
        "meta_object_name": "COSMOS 2429",
        "meta_object_id": "2007-038A",
        "meta_epoch": "2025-12-20T15:37:49.353888",
        "meta_mean_motion": 13.75150176,
        "meta_eccentricity": 0.00387896,
        "meta_inclination": 82.9806,
        "meta_ra_of_asc_node": 337.4761,
        "meta_arg_of_pericenter": 16.1605,
        "meta_mean_anomaly": 344.0778,
        "meta_ephemeris_type": 0,
        "meta_classification_type": "U",
        "meta_norad_cat_id": 32052,
        "meta_element_set_no": 999,
        "meta_rev_at_epoch": 91711,
        "meta_bstar": 3.5982593e-05,
        "meta_mean_motion_dot": 5e-07,
        "meta_mean_motion_ddot": 0,
        "tle_line1": "1 32052U 07038A   25354.65126567  .00000050  00000+0  35983-4 0  9993",
        "tle_line2": "2 32052  82.9806 337.4761 0038789  16.1605 344.0778 13.75150176917110"
      },
      "geometry": {
        "type": "Point",
        "coordinates": [
          -18.813203015097315,
          30.39409259975187
        ]
      }
    },
    {
      "type": "Feature",
      "properties": {
        "norad_id": 35635,
        "name": "COSMOS 2454",
        "group": "musson",
        "lat": 37.987440044734335,
        "lon": 167.74267424190472,
        "alt_km": 911.6337335758199,
        "timestamp": "2025-12-21T05:44:51.855689+00:00",
        "meta_object_name": "COSMOS 2454",
        "meta_object_id": "2009-039A",
        "meta_epoch": "2025-12-20T21:43:13.784160",
        "meta_mean_motion": 13.89929569,
        "meta_eccentricity": 0.00202052,
        "meta_inclination": 82.9556,
        "meta_ra_of_asc_node": 162.4551,
        "meta_arg_of_pericenter": 51.8281,
        "meta_mean_anomaly": 113.9985,
        "meta_ephemeris_type": 0,
        "meta_classification_type": "U",
        "meta_norad_cat_id": 35635,
        "meta_element_set_no": 999,
        "meta_rev_at_epoch": 83263,
        "meta_bstar": 3.1554249e-05,
        "meta_mean_motion_dot": 5.5e-07,
        "meta_mean_motion_ddot": 0,
        "tle_line1": "1 35635U 09039A   25354.90502065  .00000055  00000+0  31554-4 0  9990",
        "tle_line2": "2 35635  82.9556 162.4551 0020205  51.8281 113.9985 13.89929569832636"
      },
      "geometry": {
        "type": "Point",
        "coordinates": [
          167.74267424190472,
          37.987440044734335
        ]
      }
    },
    {
      "type": "Feature",
      "properties": {
        "norad_id": 36519,
        "name": "COSMOS 2463",
        "group": "musson",
        "lat": -59.26074053525175,
        "lon": -147.5416421032829,
        "alt_km": 977.3046277349622,
        "timestamp": "2025-12-21T05:44:51.855700+00:00",
        "meta_object_name": "COSMOS 2463",
        "meta_object_id": "2010-017A",
        "meta_epoch": "2025-12-20T20:40:15.863808",
        "meta_mean_motion": 13.71649799,
        "meta_eccentricity": 0.00347454,
        "meta_inclination": 82.9604,
        "meta_ra_of_asc_node": 20.7441,
        "meta_arg_of_pericenter": 264.6764,
        "meta_mean_anomaly": 268.9707,
        "meta_ephemeris_type": 0,
        "meta_classification_type": "U",
        "meta_norad_cat_id": 36519,
        "meta_element_set_no": 999,
        "meta_rev_at_epoch": 78348,
        "meta_bstar": 3.9818985e-05,
        "meta_mean_motion_dot": 5.1e-07,
        "meta_mean_motion_ddot": 0,
        "tle_line1": "1 36519U 10017A   25354.86129472  .00000051  00000+0  39819-4 0  9990",
        "tle_line2": "2 36519  82.9604  20.7441 0034745 264.6764 268.9707 13.71649799783486"
      },
      "geometry": {
        "type": "Point",
        "coordinates": [
          -147.5416421032829,
          -59.26074053525175
        ]
      }
    }
  ]
}